GAOFEN-3                
1 41727U 16049A   26172.52416935  .00000126  00000+0  51315-4 0  9991
2 41727  98.4013 180.2452 0001476  97.9116 262.2242 14.42216237519277
SKYSAT-C4               
1 41771U 16058B   26171.30447646  .00014622  00000+0  27482-3 0  9991
2 41771  96.9172 192.9462 0001584 137.0730 223.0646 15.48669604545958
SKYSAT-C5               
1 41772U 16058C   26171.36447191  .00006273  00000+0  18990-3 0  9990
2 41772  97.0466 211.8632 0000885 282.7780  77.3365 15.34507683544234
SKYSAT-C2               
1 41773U 16058D   26170.98472481  .00010132  00000+0  23850-3 0  9998
2 41773  97.0167 192.9745 0004463  64.8229 295.3482 15.42124031545481
SKYSAT-C3               
1 41774U 16058E   26171.36592513  .00020111  00000+0  32765-3 0  9994
2 41774  96.9003 202.0899 0001389 101.4792 258.6618 15.52656860546608
ALSAT-1B                
1 41785U 16059C   26172.52187030  .00000186  00000+0  36888-4 0  9991
2 41785  97.7752 181.0987 0008425 204.3396 155.7415 14.72277021521216
PATHFINDER 1            
1 41787U 16059E   26170.93178020  .00000403  00000+0  78648-4 0  9997
2 41787  97.8166 170.0842 0028007 194.6747 165.3648 14.67665593520117
SCATSAT 1               
1 41790U 16059H   26171.45951691  .00000807  00000+0  11295-3 0  9994
2 41790  98.1189 235.2594 0053498 236.6981 122.9100 14.79531207102077
GOKTURK 1A              
1 41875U 16073A   26172.55518571  .00000275  00000+0  63156-4 0  9995
2 41875  98.1242  67.1608 0001432  78.1323 282.0039 14.62777208509467
RESOURCESAT-2A          
1 41877U 16074A   26172.50486874  .00000122  00000+0  75879-4 0  9999
2 41877  98.7521 245.9744 0003304  76.6022 283.5524 14.21617870494912
CARTOSAT-2D             
1 41948U 17008A   26172.50553581  .00006091  00000+0  29221-3 0  9996
2 41948  97.4102 231.7316 0004211 216.1249 143.9702 15.19237778518232
SENTINEL-2B             
1 42063U 17013A   26172.47322568  .00000345  00000+0  14824-3 0  9995
2 42063  98.5686 247.1877 0001181  88.2642 271.8676 14.30818862485258
CARTOSAT-2E             
1 42767U 17036C   26172.52324997  .00004193  00000+0  20196-3 0  9999
2 42767  97.4268 232.2553 0002199 297.1780  62.9230 15.19282669498801
FORMOSAT-5              
1 42920U 17049A   26171.43210432  .00000097  00000+0  35731-4 0  9992
2 42920  98.2254 246.6698 0012638  75.3872 284.8723 14.50899817467140
SENTINEL-5P             
1 42969U 17064A   26171.44423655  .00000041  00000+0  40558-4 0  9998
2 42969  98.7925 113.5524 0000991  87.3098 272.8191 14.19519441450027
SKYSAT-C11              
1 42987U 17068A   26171.39718881  .00024827  00000+0  33189-3 0  9993
2 42987  97.4360 320.3680 0000512  98.6776 261.4537 15.58039677483749
SKYSAT-C10              
1 42988U 17068B   26171.35690127  .00007409  00000+0  22285-3 0  9994
2 42988  97.4513 308.2348 0001114 100.0018 260.1351 15.34683060482847
SKYSAT-C9               
1 42989U 17068C   26171.35464766  .00011033  00000+0  26366-3 0  9995
2 42989  97.4434 309.1976 0009511 123.1012 237.1149 15.41629285483247
SKYSAT-C8               
1 42990U 17068D   26171.32343326  .00008930  00000+0  24879-3 0  9991
2 42990  97.4530 308.0128 0001437  95.5767 264.5641 15.37027507482795
SKYSAT-C7               
1 42991U 17068E   26171.38225694  .00009012  00000+0  25123-3 0  9990
2 42991  97.4541 309.0621 0007174  97.6868 262.5191 15.36980206482865
SKYSAT-C6               
1 42992U 17068F   26171.34260987  .00007933  00000+0  24159-3 0  9999
2 42992  97.4576 308.9800 0004575 129.5530 230.6117 15.34256947482808
CARTOSAT-2F             
1 43111U 18004A   26172.48967356  .00003566  00000+0  17250-3 0  9996
2 43111  97.4787 232.0827 0001151 183.3047 176.8180 15.19244053467981
GAOFEN-1 02             
1 43259U 18031A   26172.50026785  .00000711  00000+0  10961-3 0  9995
2 43259  98.0520 235.0160 0003499  23.7295 336.4075 14.76462409443337
GAOFEN-1 03             
1 43260U 18031B   26172.54615247  .00000465  00000+0  74163-4 0  9999
2 43260  98.0516 234.9193 0003641  70.2600 289.9002 14.76473961443331
GAOFEN-1 04             
1 43262U 18031D   26172.52195146  .00000393  00000+0  63905-4 0  9992
2 43262  98.0522 235.0866 0002130  73.2596 286.8847 14.76438382443328
SENTINEL-3B             
1 43437U 18039A   26171.41568603  .00000074  00000+0  48499-4 0  9990
2 43437  98.6248 238.9017 0000727  94.6800 265.4463 14.26735540424583
GAOFEN-5 01             
1 43461U 18043A   26171.34997235  .00000232  00000+0  57864-4 0  9993
2 43461  98.4569 143.0025 0003017  78.1831 281.9707 14.60607261432157
GAOFEN-6                
1 43484U 18048A   26172.54358654  .00001061  00000+0  15912-3 0  9990
2 43484  97.9704 235.2358 0011981 151.9103 208.2756 14.76604265434034
GAOFEN-11 01            
1 43585U 18063A   26172.54827384  .00016745  00000+0  24737-3 0  9990
2 43585  97.1285 239.4163 0002615 338.4969  21.6176 15.55402749441029
ICESAT-2                
1 43613U 18070A   26171.42893477  .00008058  00000+0  29199-3 0  9997
2 43613  92.0081 291.8551 0006110 100.1552 260.0387 15.28330924432958
HYSIS                   
1 43719U 18096A   26172.54243125  .00000750  00000+0  10958-3 0  9999
2 43719  97.9834 239.2567 0001791  96.3154 263.8261 14.78623542408064
